[{"OBJECT_NAME":"GLOBALSTAR M095","OBJECT_ID":"2013-005F","EPOCH":"2026-03-29T04:09:26.080128","MEAN_MOTION":12.62266811,"ECCENTRICITY":9.13e-5,"INCLINATION":52.008,"RA_OF_ASC_NODE":164.766,"ARG_OF_PERICENTER":123.4193,"MEAN_ANOMALY":236.6761,"EPHEMERIS_TYPE":0,"CLASSIFICATION_TYPE":"U","NORAD_CAT_ID":39077,"ELEMENT_SET_NO":999,"REV_AT_EPOCH":60576,"BSTAR":-2.3119e-5,"MEAN_MOTION_DOT":-1.08e-6,"MEAN_MOTION_DDOT":0},{"OBJECT_NAME":"GLOBALSTAR M087","OBJECT_ID":"2022-064A","EPOCH":"2026-03-29T00:40:47.918496","MEAN_MOTION":12.62267755,"ECCENTRICITY":9.22e-5,"INCLINATION":52.0003,"RA_OF_ASC_NODE":306.4957,"ARG_OF_PERICENTER":103.7243,"MEAN_ANOMALY":256.3726,"EPHEMERIS_TYPE":0,"CLASSIFICATION_TYPE":"U","NORAD_CAT_ID":52888,"ELEMENT_SET_NO":999,"REV_AT_EPOCH":18101,"BSTAR":0.00017052,"MEAN_MOTION_DOT":-7.3e-7,"MEAN_MOTION_DDOT":0}]
