GLOBALSTAR M095         
1 39077U 13005F   26088.17321852 -.00000108  00000+0 -23119-4 0  9998
2 39077  52.0080 164.7660 0000913 123.4193 236.6761 12.62266811605769
GLOBALSTAR M087         
1 52888U 22064A   26088.02833239 -.00000073  00000+0  17052-3 0  9997
2 52888  52.0003 306.4957 0000922 103.7243 256.3726 12.62267755181015
